DMSP 5D-3 F16 (USA 172) 
1 28054U 03048A   26204.31075589 -.00000005  00000+0  20888-4 0  9991
2 28054  98.9887 228.3768 0007897  51.2160   8.9868 14.14485002174596
METEOSAT-9 (MSG-2)      
1 28912U 05049B   26203.95837882  .00000120  00000+0  00000+0 0  9994
2 28912   9.4401  53.8093 0002491   0.9883 276.6377  1.00276551  7354
DMSP 5D-3 F17 (USA 191) 
1 29522U 06050A   26204.30310709  .00000026  00000+0  35823-4 0  9990
2 29522  98.7392 210.1361 0009286 318.4046  41.6421 14.14996746 17530
FENGYUN 3A              
1 32958U 08026A   26204.27576991  .00000052  00000+0  45333-4 0  9991
2 32958  98.6886 144.4352 0009327  30.5483 329.6235 14.19577801940524
EWS-G3 (GOES 14)        
1 35491U 09033A   26204.27962921 -.00000355  00000+0  00000+0 0  9991
2 35491   1.7801  82.5955 0002256  39.5152  39.5365  1.00094604  6950
DMSP 5D-3 F18 (USA 210) 
1 35951U 09057A   26204.27671831  .00000219  00000+0  13657-3 0  9999
2 35951  98.9064 184.9722 0011672 143.4041 216.7932 14.14915516864698
EWS-G2 (GOES 15)        
1 36411U 10008A   26204.12585713  .00000025  00000+0  00000+0 0  9995
2 36411   1.3743  82.3710 0005641  52.6388 274.4039  1.00272334 59997
COMS 1                  
1 36744U 10032A   26204.29130944 -.00000138  00000+0  00000+0 0  9997
2 36744   4.8953  74.9198 0011528  15.4090 245.4264  0.99166005 51446
FENGYUN 3B              
1 37214U 10059A   26204.30535766 -.00000169  00000+0 -63890-4 0  9998
2 37214  98.9604 250.4692 0023255  84.8808   6.1858 14.14847229812535
SUOMI NPP               
1 37849U 11061A   26204.28835394  .00000048  00000+0  43854-4 0  9995
2 37849  98.7956 144.9192 0001171 180.4037 179.7139 14.19523868763561
METEOSAT-10 (MSG-3)     
1 38552U 12035B   26204.25588243 -.00000006  00000+0  00000+0 0  9990
2 38552   4.7546  60.8392 0001498  20.5243 311.7984  1.00273330 51218
METOP-B                 
1 38771U 12049A   26204.30010416  .00000070  00000+0  51603-4 0  9996
2 38771  98.6484 255.0750 0001423 214.4441 145.6644 14.21447997718397
INSAT-3D                
1 39216U 13038B   26204.28153589 -.00000336  00000+0  00000+0 0  9992
2 39216   2.0166  82.0853 0001160  43.8287  45.9628  1.00272704 47440
FENGYUN 3C              
1 39260U 13052A   26204.22855317  .00000073  00000+0  58124-4 0  9991
2 39260  98.5007 176.4536 0013447 280.9532  79.0130 14.15762165663666
METEOR-M 2              
1 40069U 14037A   26204.25555837  .00000471  00000+0  23480-3 0  9999
2 40069  98.5143 178.7213 0004712 299.5827  60.4881 14.21472399624445
HIMAWARI-8              
1 40267U 14060A   26204.28370256 -.00000271  00000+0  00000+0 0  9996
2 40267   0.0385 270.3367 0001390 246.2472  27.2118  1.00270661 43129
FENGYUN 2G              
1 40367U 14090A   26204.04489103 -.00000303  00000+0  00000+0 0  9992
2 40367   5.7273  72.3795 0003692 171.1923 172.9103  1.00278405 42357
METEOSAT-11 (MSG-4)     
1 40732U 15034A   26204.25770244  .00000064  00000+0  00000+0 0  9992
2 40732   3.2885  70.8742 0001965 355.6195 336.5603  1.00274377  7573
ELEKTRO-L 2             
1 41105U 15074A   26203.96782013 -.00000119  00000+0  00000+0 0  9997
2 41105   6.7817  70.0808 0000650 230.5554 334.0031  1.00272653 38865
SENTINEL-3A             
1 41335U 16011A   26204.26329476  .00000067  00000+0  45588-4 0  9994
2 41335  98.6231 271.1252 0001289  86.9699 273.1629 14.26735984543207
INSAT-3DR               
1 41752U 16054A   26204.12793714 -.00000072  00000+0  00000+0 0  9991
2 41752   0.0891  88.9774 0010254 180.2555 151.6701  1.00271776 36179
HIMAWARI-9              
1 41836U 16064A   26204.28378922  .00000000  00000+0  00000+0 0  9992
2 41836   0.0156  51.3157 0002529 127.9715   4.6463  1.00270213 35577
GOES 16                 
1 41866U 16071A   26204.28271366 -.00000087  00000+0  00000+0 0  9993
2 41866   0.4238  85.4212 0000744  70.7318 141.9384  1.00271911 35467
FENGYUN 4A              
1 41882U 16077A   26204.28032255 -.00000355  00000+0  00000+0 0  9997
2 41882   2.4119  79.8704 0008021 158.7862 286.8727  1.00264818 35294
CYGFM05                 
1 41884U 16078A   26203.88291712  .00029391  00000+0  37636-3 0  9999
2 41884  34.9577  23.9441 0005266 122.5417 237.5817 15.58145909534323
CYGFM04                 
1 41885U 16078B   26203.73722765  .00034779  00000+0  36254-3 0  9992
2 41885  34.9331 350.7302 0004472 171.2900 188.7904 15.63455104534562
CYGFM02                 
1 41886U 16078C   26203.79327041  .00041520  00000+0  37784-3 0  9998
2 41886  34.9411 343.7857 0005146 172.8002 187.2800 15.66818040534753
CYGFM01                 
1 41887U 16078D   26203.85546260  .00030173  00000+0  37581-3 0  9999
2 41887  34.9407  24.8843 0005122 114.9529 245.1729 15.58874163534276
CYGFM08                 
1 41888U 16078E   26203.81477673  .00033456  00000+0  37191-3 0  9991
2 41888  34.9440   3.7491 0006125 153.0035 207.1010 15.61809306534541
CYGFM07                 
1 41890U 16078G   26203.77156149  .00032344  00000+0  35825-3 0  9998
2 41890  34.9457 352.3471 0004919 170.5432 189.5387 15.61915340534565
CYGFM03                 
1 41891U 16078H   26203.74283402  .00032421  00000+0  35938-3 0  9990
2 41891  34.9411 354.4666 0004481 153.6024 206.4930 15.61898063534530
